{"spkid": "20496005", "covariance": {"epoch": "2457721.5", "elements": [{"name": "e", "sigma": 2.19683303611408e-08, "units": null, "title": "eccentricity", "value": ".5558368092120461", "label": "e"}, {"title": "perihelion distance", "value": "1.002658989238269", "units": "au", "name": "q", "sigma": 4.81220124148181e-08, "label": "q"}, {"title": "time of perihelion passage", "value": "2458008.682642289852", "units": "TDB", "name": "tp", "sigma": 8.82961672882268e-06, "label": "tp"}, {"units": "deg", "value": "309.1835843921808", "title": "longitude of the ascending node", "name": "om", "sigma": 4.38453296595998e-05, "label": "node"}, {"label": "peri", "value": "32.81078778422695", "title": "argument of perihelion", "units": "deg", "sigma": 4.56645495379066e-05, "name": "w"}, {"units": "deg", "title": "inclination", "value": "6.239734226834361", "sigma": 3.44428345083223e-06, "name": "i", "label": "i"}], "data": [["4.826075388562223E-16", "-1.041780750119093E-15", "-7.892889051371769E-14", "1.149412911309125E-14", "-1.350301183239969E-13", "-1.23375177413267E-14"], ["-1.041780750119093E-15", "2.315728078851911E-15", "1.589343686356038E-13", "-1.710621261217061E-14", "2.729617402039093E-13", "3.100169702889108E-14"], ["-7.892889051371769E-14", "1.589343686356038E-13", "7.796213157790531E-11", "-6.319618490341267E-11", "1.48595950100182E-10", "-7.974439826577798E-12"], ["1.149412911309125E-14", "-1.710621261217061E-14", "-6.319618490341267E-11", "1.92241293295898E-9", "-1.952654274311905E-9", "4.904561246628807E-11"], ["-1.350301183239969E-13", "2.729617402039093E-13", "1.48595950100182E-10", "-1.952654274311905E-9", "2.085251084499926E-9", "-5.708667416848227E-11"], ["-1.23375177413267E-14", "3.100169702889108E-14", "-7.974439826577798E-12", "4.904561246628807E-11", "-5.708667416848227E-11", "1.186308848967681E-11"]], "labels": ["e", "q", "tp", "node", "peri", "i"]}, "elements": [{"name": "e", "sigma": "2.2128E-8", "units": null, "title": "eccentricity", "value": ".5571301491405936", "label": "e"}, {"units": "au", "value": "2.256507740380874", "title": "semi-major axis", "sigma": "1.8759E-8", "name": "a", "label": "a"}, {"name": "q", "sigma": "4.858E-8", "units": "au", "title": "perihelion distance", "value": ".9993392464455739", "label": "q"}, {"label": "i", "title": "inclination; angle with respect to x-y ecliptic plane", "value": "6.240413345341452", "units": "deg", "name": "i", "sigma": "3.4483E-6"}, {"label": "node", "units": "deg", "title": "longitude of the ascending node", "value": "309.0585393737251", "name": "om", "sigma": "4.3867E-5"}, {"label": "peri", "title": "argument of perihelion", "value": "32.9170476511048", "units": "deg", "sigma": "4.5679E-5", "name": "w"}, {"label": "M", "name": "ma", "sigma": "1.1319E-5", "units": "deg", "title": "mean anomaly", "value": "207.3597863213952"}, {"label": "tp", "name": "tp", "sigma": "4.5354E-5", "title": "time of perihelion passage", "value": "2461725.452650492393", "units": "TDB"}, {"name": "per", "sigma": "1.5439E-5", "units": "d", "title": "sidereal orbital period", "value": "1238.094140612112", "label": "period"}, {"sigma": "3.6259E-9", "name": "n", "units": "deg/d", "title": "mean motion", "value": ".2907694885156444", "label": "n"}, {"units": "au", "value": "3.513676234316174", "title": "aphelion distance", "name": "ad", "sigma": "2.9211E-8", "label": "Q"}], "epoch": "2461200.5"}